{
  "type": "FeatureCollection",
  "features": [
    {
      "type": "Feature",
      "properties": {
        "norad_id": 15362,
        "name": "NOVA 3",
        "group": "nnss",
        "lat": 62.5548212857774,
        "lon": 80.23488573551103,
        "alt_km": 1161.1210088750377,
        "timestamp": "2025-12-07T07:31:36.566788+00:00",
        "meta_object_name": "NOVA 3",
        "meta_object_id": "1984-110A",
        "meta_epoch": "2025-12-06T20:55:14.773728",
        "meta_mean_motion": 13.23043511,
        "meta_eccentricity": 0.00309705,
        "meta_inclination": 90.1224,
        "meta_ra_of_asc_node": 80.4655,
        "meta_arg_of_pericenter": 348.4563,
        "meta_mean_anomaly": 130.1814,
        "meta_ephemeris_type": 0,
        "meta_classification_type": "U",
        "meta_norad_cat_id": 15362,
        "meta_element_set_no": 999,
        "meta_rev_at_epoch": 98621,
        "meta_bstar": 0.0002937031,
        "meta_mean_motion_dot": 1.32e-06,
        "meta_mean_motion_ddot": 0,
        "tle_line1": "1 15362U 84110A   25340.87169877  .00000132  00000+0  29370-3 0  9997",
        "tle_line2": "2 15362  90.1224  80.4655 0030970 348.4563 130.1814 13.23043511986214"
      },
      "geometry": {
        "type": "Point",
        "coordinates": [
          80.23488573551103,
          62.5548212857774
        ]
      }
    },
    {
      "type": "Feature",
      "properties": {
        "norad_id": 15935,
        "name": "OSCAR 30",
        "group": "nnss",
        "lat": -69.791368854101,
        "lon": -80.68966194206976,
        "alt_km": 1241.634139997982,
        "timestamp": "2025-12-07T07:31:36.566799+00:00",
        "meta_object_name": "OSCAR 30",
        "meta_object_id": "1985-066A",
        "meta_epoch": "2025-12-06T21:53:36.717792",
        "meta_mean_motion": 13.36076766,
        "meta_eccentricity": 0.0169377,
        "meta_inclination": 90.1648,
        "meta_ra_of_asc_node": 99.7518,
        "meta_arg_of_pericenter": 100.1668,
        "meta_mean_anomaly": 19.1328,
        "meta_ephemeris_type": 0,
        "meta_classification_type": "U",
        "meta_norad_cat_id": 15935,
        "meta_element_set_no": 999,
        "meta_rev_at_epoch": 96375,
        "meta_bstar": 0.00024041486,
        "meta_mean_motion_dot": 1.44e-06,
        "meta_mean_motion_ddot": 0,
        "tle_line1": "1 15935U 85066A   25340.91223053  .00000144  00000+0  24041-3 0  9999",
        "tle_line2": "2 15935  90.1648  99.7518 0169377 100.1668  19.1328 13.36076766963756"
      },
      "geometry": {
        "type": "Point",
        "coordinates": [
          -80.68966194206976,
          -69.791368854101
        ]
      }
    },
    {
      "type": "Feature",
      "properties": {
        "norad_id": 15936,
        "name": "OSCAR 24",
        "group": "nnss",
        "lat": -34.460936324880024,
        "lon": 92.33221301062301,
        "alt_km": 1227.4905779569608,
        "timestamp": "2025-12-07T07:31:36.566810+00:00",
        "meta_object_name": "OSCAR 24",
        "meta_object_id": "1985-066B",
        "meta_epoch": "2025-12-06T21:29:15.744768",
        "meta_mean_motion": 13.35934424,
        "meta_eccentricity": 0.01703977,
        "meta_inclination": 90.1789,
        "meta_ra_of_asc_node": 92.202,
        "meta_arg_of_pericenter": 106.6531,
        "meta_mean_anomaly": 9.6966,
        "meta_ephemeris_type": 0,
        "meta_classification_type": "U",
        "meta_norad_cat_id": 15936,
        "meta_element_set_no": 999,
        "meta_rev_at_epoch": 96565,
        "meta_bstar": 0.00022181191,
        "meta_mean_motion_dot": 1.33e-06,
        "meta_mean_motion_ddot": 0,
        "tle_line1": "1 15936U 85066B   25340.89532112  .00000133  00000+0  22181-3 0  9997",
        "tle_line2": "2 15936  90.1789  92.2020 0170397 106.6531   9.6966 13.35934424965659"
      },
      "geometry": {
        "type": "Point",
        "coordinates": [
          92.33221301062301,
          -34.460936324880024
        ]
      }
    },
    {
      "type": "Feature",
      "properties": {
        "norad_id": 17070,
        "name": "POLAR BEAR",
        "group": "nnss",
        "lat": 64.07381065763171,
        "lon": 3.2041042697237248,
        "alt_km": 946.3951257809431,
        "timestamp": "2025-12-07T07:31:36.566821+00:00",
        "meta_object_name": "POLAR BEAR",
        "meta_object_id": "1986-088A",
        "meta_epoch": "2025-12-06T15:35:55.464000",
        "meta_mean_motion": 13.75249012,
        "meta_eccentricity": 0.00405694,
        "meta_inclination": 89.6179,
        "meta_ra_of_asc_node": 184.0173,
        "meta_arg_of_pericenter": 136.9422,
        "meta_mean_anomaly": 295.3265,
        "meta_ephemeris_type": 0,
        "meta_classification_type": "U",
        "meta_norad_cat_id": 17070,
        "meta_element_set_no": 999,
        "meta_rev_at_epoch": 95895,
        "meta_bstar": 0.00017232039,
        "meta_mean_motion_dot": 1.78e-06,
        "meta_mean_motion_ddot": 0,
        "tle_line1": "1 17070U 86088A   25340.64994750  .00000178  00000+0  17232-3 0  9996",
        "tle_line2": "2 17070  89.6179 184.0173 0040569 136.9422 295.3265 13.75249012958954"
      },
      "geometry": {
        "type": "Point",
        "coordinates": [
          3.2041042697237248,
          64.07381065763171
        ]
      }
    },
    {
      "type": "Feature",
      "properties": {
        "norad_id": 18361,
        "name": "OSCAR 27",
        "group": "nnss",
        "lat": -65.55667639657008,
        "lon": -101.75449570879479,
        "alt_km": 1022.1793043672278,
        "timestamp": "2025-12-07T07:31:36.566831+00:00",
        "meta_object_name": "OSCAR 27",
        "meta_object_id": "1987-080A",
        "meta_epoch": "2025-12-06T19:35:30.365088",
        "meta_mean_motion": 13.4490481,
        "meta_eccentricity": 0.01025456,
        "meta_inclination": 90.3742,
        "meta_ra_of_asc_node": 79.0507,
        "meta_arg_of_pericenter": 240.9889,
        "meta_mean_anomaly": 118.0952,
        "meta_ephemeris_type": 0,
        "meta_classification_type": "U",
        "meta_norad_cat_id": 18361,
        "meta_element_set_no": 999,
        "meta_rev_at_epoch": 87477,
        "meta_bstar": 0.00029594555,
        "meta_mean_motion_dot": 1.87e-06,
        "meta_mean_motion_ddot": 0,
        "tle_line1": "1 18361U 87080A   25340.81632367  .00000187  00000+0  29595-3 0  9990",
        "tle_line2": "2 18361  90.3742  79.0507 0102545 240.9889 118.0952 13.44904810874774"
      },
      "geometry": {
        "type": "Point",
        "coordinates": [
          -101.75449570879479,
          -65.55667639657008
        ]
      }
    },
    {
      "type": "Feature",
      "properties": {
        "norad_id": 18362,
        "name": "OSCAR 29",
        "group": "nnss",
        "lat": -86.5810085395941,
        "lon": -106.77233518131204,
        "alt_km": 1022.8824595567839,
        "timestamp": "2025-12-07T07:31:36.566852+00:00",
        "meta_object_name": "OSCAR 29",
        "meta_object_id": "1987-080B",
        "meta_epoch": "2025-12-06T20:04:36.218784",
        "meta_mean_motion": 13.44446745,
        "meta_eccentricity": 0.01037345,
        "meta_inclination": 90.3754,
        "meta_ra_of_asc_node": 79.5098,
        "meta_arg_of_pericenter": 264.3388,
        "meta_mean_anomaly": 214.4398,
        "meta_ephemeris_type": 0,
        "meta_classification_type": "U",
        "meta_norad_cat_id": 18362,
        "meta_element_set_no": 999,
        "meta_rev_at_epoch": 87430,
        "meta_bstar": 0.00026415625,
        "meta_mean_motion_dot": 1.66e-06,
        "meta_mean_motion_ddot": 0,
        "tle_line1": "1 18362U 87080B   25340.83653031  .00000166  00000+0  26416-3 0  9990",
        "tle_line2": "2 18362  90.3754  79.5098 0103734 264.3388 214.4398 13.44446745874305"
      },
      "geometry": {
        "type": "Point",
        "coordinates": [
          -106.77233518131204,
          -86.5810085395941
        ]
      }
    },
    {
      "type": "Feature",
      "properties": {
        "norad_id": 19070,
        "name": "OSCAR 23",
        "group": "nnss",
        "lat": 7.093613158993628,
        "lon": 16.184409518440447,
        "alt_km": 1298.1413903379262,
        "timestamp": "2025-12-07T07:31:36.566873+00:00",
        "meta_object_name": "OSCAR 23",
        "meta_object_id": "1988-033A",
        "meta_epoch": "2025-12-06T22:42:16.720704",
        "meta_mean_motion": 13.27785888,
        "meta_eccentricity": 0.0189043,
        "meta_inclination": 90.3218,
        "meta_ra_of_asc_node": 16.213,
        "meta_arg_of_pericenter": 196.0491,
        "meta_mean_anomaly": 214.784,
        "meta_ephemeris_type": 0,
        "meta_classification_type": "U",
        "meta_norad_cat_id": 19070,
        "meta_element_set_no": 999,
        "meta_rev_at_epoch": 82176,
        "meta_bstar": 0.00026892757,
        "meta_mean_motion_dot": 1.42e-06,
        "meta_mean_motion_ddot": 0,
        "tle_line1": "1 19070U 88033A   25340.94602686  .00000142  00000+0  26893-3 0  9991",
        "tle_line2": "2 19070  90.3218  16.2130 0189043 196.0491 214.7840 13.27785888821767"
      },
      "geometry": {
        "type": "Point",
        "coordinates": [
          16.184409518440447,
          7.093613158993628
        ]
      }
    }
  ]
}